{"type": "FeatureCollection", "features": [{"type": "Feature", "properties": {"norad_id": 66376, "name": "SHIYAN-32 01", "group": "last-30-days", "lat": 7.001048068740953, "lon": -157.5751312914316, "alt_km": 429.7348001725122, "timestamp": "2025-12-08T17:43:03.630352+00:00", "meta": {"OBJECT_NAME": "SHIYAN-32 01", "OBJECT_ID": "2025-255A", "EPOCH": "2025-12-08T05:14:25.015776", "MEAN_MOTION": 15.42564839, "ECCENTRICITY": 0.00135684, "INCLINATION": 52.9948, "RA_OF_ASC_NODE": 199.5813, "ARG_OF_PERICENTER": 27.6494, "MEAN_ANOMALY": 332.5229, "EPHEMERIS_TYPE": 0, "CLASSIFICATION_TYPE": "U", "NORAD_CAT_ID": 66376, "ELEMENT_SET_NO": 999, "REV_AT_EPOCH": 465, "BSTAR": 0.00051469037, "MEAN_MOTION_DOT": 0.00022423, "MEAN_MOTION_DDOT": 0}, "tle": {"line1": "1 66376U 25255A   25342.21834509  .00022423  00000+0  51469-3 0  9995", "line2": "2 66376  52.9948 199.5813 0013568  27.6494 332.5229 15.42564839  4656"}}, "geometry": {"type": "Point", "coordinates": [-157.5751312914316, 7.001048068740953]}}, {"type": "Feature", "properties": {"norad_id": 66377, "name": "CZ-11 DEB", "group": "last-30-days", "lat": 51.310180053167876, "lon": -53.42708608881706, "alt_km": 424.66907647008156, "timestamp": "2025-12-08T17:43:03.630409+00:00", "meta": {"OBJECT_NAME": "CZ-11 DEB", "OBJECT_ID": "2025-255B", "EPOCH": "2025-12-08T06:24:16.452576", "MEAN_MOTION": 15.4407972, "ECCENTRICITY": 0.00138722, "INCLINATION": 52.9949, "RA_OF_ASC_NODE": 199.1704, "ARG_OF_PERICENTER": 25.1944, "MEAN_ANOMALY": 334.9735, "EPHEMERIS_TYPE": 0, "CLASSIFICATION_TYPE": "U", "NORAD_CAT_ID": 66377, "ELEMENT_SET_NO": 999, "REV_AT_EPOCH": 452, "BSTAR": 0.00086700318, "MEAN_MOTION_DOT": 0.00040173, "MEAN_MOTION_DDOT": 0}, "tle": {"line1": "1 66377U 25255B   25342.26685709  .00040173  00000+0  86700-3 0  9995", "line2": "2 66377  52.9949 199.1704 0013872  25.1944 334.9735 15.44079720  4520"}}, "geometry": {"type": "Point", "coordinates": [-53.42708608881706, 51.310180053167876]}}, {"type": "Feature", "properties": {"norad_id": 66378, "name": "SHIYAN-32 02", "group": "last-30-days", "lat": 29.07975506963171, "lon": -7.959068405954808, "alt_km": 432.76080933912726, "timestamp": "2025-12-08T17:43:03.630426+00:00", "meta": {"OBJECT_NAME": "SHIYAN-32 02", "OBJECT_ID": "2025-255C", "EPOCH": "2025-12-08T06:14:06.862560", "MEAN_MOTION": 15.44728153, "ECCENTRICITY": 0.00121587, "INCLINATION": 52.9921, "RA_OF_ASC_NODE": 199.125, "ARG_OF_PERICENTER": 20.2862, "MEAN_ANOMALY": 339.8624, "EPHEMERIS_TYPE": 0, "CLASSIFICATION_TYPE": "U", "NORAD_CAT_ID": 66378, "ELEMENT_SET_NO": 999, "REV_AT_EPOCH": 452, "BSTAR": 0.00085594969, "MEAN_MOTION_DOT": 0.00040516, "MEAN_MOTION_DDOT": 0}, "tle": {"line1": "1 66378U 25255C   25342.25980165  .00040516  00000+0  85595-3 0  9991", "line2": "2 66378  52.9921 199.1250 0012158  20.2862 339.8624 15.44728153  4520"}}, "geometry": {"type": "Point", "coordinates": [-7.959068405954808, 29.07975506963171]}}, {"type": "Feature", "properties": {"norad_id": 66379, "name": "SHIYAN-32 03", "group": "last-30-days", "lat": 35.656885176815024, "lon": -130.20589253638852, "alt_km": 422.77790865860607, "timestamp": "2025-12-08T17:43:03.630440+00:00", "meta": {"OBJECT_NAME": "SHIYAN-32 03", "OBJECT_ID": "2025-255D", "EPOCH": "2025-12-08T06:38:00.656736", "MEAN_MOTION": 15.42882742, "ECCENTRICITY": 0.00156249, "INCLINATION": 52.9956, "RA_OF_ASC_NODE": 199.2319, "ARG_OF_PERICENTER": 29.0029, "MEAN_ANOMALY": 331.184, "EPHEMERIS_TYPE": 0, "CLASSIFICATION_TYPE": "U", "NORAD_CAT_ID": 66379, "ELEMENT_SET_NO": 999, "REV_AT_EPOCH": 454, "BSTAR": 0.00042472397, "MEAN_MOTION_DOT": 0.00018641, "MEAN_MOTION_DDOT": 0}, "tle": {"line1": "1 66379U 25255D   25342.27639649  .00018641  00000+0  42472-3 0  9993", "line2": "2 66379  52.9956 199.2319 0015624  29.0029 331.1840 15.42882742  4549"}}, "geometry": {"type": "Point", "coordinates": [-130.20589253638852, 35.656885176815024]}}, {"type": "Feature", "properties": {"norad_id": 66380, "name": "STARLINK-35139", "group": "last-30-days", "lat": -39.07048380667347, "lon": -114.01497972710676, "alt_km": 406.68604569709714, "timestamp": "2025-12-08T17:43:03.630452+00:00", "meta": {"OBJECT_NAME": "STARLINK-35139", "OBJECT_ID": "2025-257A", "EPOCH": "2025-12-08T02:25:37.564608", "MEAN_MOTION": 15.43616721, "ECCENTRICITY": 0.00287451, "INCLINATION": 53.1605, "RA_OF_ASC_NODE": 286.5075, "ARG_OF_PERICENTER": 295.0034, "MEAN_ANOMALY": 64.7988, "EPHEMERIS_TYPE": 0, "CLASSIFICATION_TYPE": "U", "NORAD_CAT_ID": 66380, "ELEMENT_SET_NO": 999, "REV_AT_EPOCH": 559, "BSTAR": 0.080696657, "MEAN_MOTION_DOT": 0.04336102, "MEAN_MOTION_DDOT": 0}, "tle": {"line1": "1 66380U 25257A   25342.10112922  .04336102  00000+0  80697-1 0  9997", "line2": "2 66380  53.1605 286.5075 0028745 295.0034  64.7988 15.43616721  5594"}}, "geometry": {"type": "Point", "coordinates": [-114.01497972710676, -39.07048380667347]}}, {"type": "Feature", "properties": {"norad_id": 66381, "name": "STARLINK-35158", "group": "last-30-days", "lat": -47.81547920337138, "lon": -132.3128268602103, "alt_km": 452.7595386574585, "timestamp": "2025-12-08T17:43:03.630465+00:00", "meta": {"OBJECT_NAME": "STARLINK-35158", "OBJECT_ID": "2025-257B", "EPOCH": "2025-12-08T05:32:52.449504", "MEAN_MOTION": 15.39584676, "ECCENTRICITY": 0.00013303, "INCLINATION": 53.1602, "RA_OF_ASC_NODE": 285.8959, "ARG_OF_PERICENTER": 120.5709, "MEAN_ANOMALY": 239.5428, "EPHEMERIS_TYPE": 0, "CLASSIFICATION_TYPE": "U", "NORAD_CAT_ID": 66381, "ELEMENT_SET_NO": 999, "REV_AT_EPOCH": 567, "BSTAR": 0.001206314, "MEAN_MOTION_DOT": 0.00048101, "MEAN_MOTION_DDOT": 0}, "tle": {"line1": "1 66381U 25257B   25342.23116261  .00048101  00000+0  12063-2 0  9990", "line2": "2 66381  53.1602 285.8959 0001330 120.5709 239.5428 15.39584676  5675"}}, "geometry": {"type": "Point", "coordinates": [-132.3128268602103, -47.81547920337138]}}, {"type": "Feature", "properties": {"norad_id": 66382, "name": "STARLINK-35639", "group": "last-30-days", "lat": -33.662914214830195, "lon": -106.49604003472518, "alt_km": 451.2226806723693, "timestamp": "2025-12-08T17:43:03.630503+00:00", "meta": {"OBJECT_NAME": "STARLINK-35639", "OBJECT_ID": "2025-257C", "EPOCH": "2025-12-08T05:26:39.828768", "MEAN_MOTION": 15.39646356, "ECCENTRICITY": 6.971e-05, "INCLINATION": 53.1601, "RA_OF_ASC_NODE": 285.8679, "ARG_OF_PERICENTER": 65.6148, "MEAN_ANOMALY": 294.4929, "EPHEMERIS_TYPE": 0, "CLASSIFICATION_TYPE": "U", "NORAD_CAT_ID": 66382, "ELEMENT_SET_NO": 999, "REV_AT_EPOCH": 567, "BSTAR": 0.0013331214, "MEAN_MOTION_DOT": 0.00053344, "MEAN_MOTION_DDOT": 0}, "tle": {"line1": "1 66382U 25257C   25342.22684987  .00053344  00000+0  13331-2 0  9999", "line2": "2 66382  53.1601 285.8679 0000697  65.6148 294.4929 15.39646356  5675"}}, "geometry": {"type": "Point", "coordinates": [-106.49604003472518, -33.662914214830195]}}, {"type": "Feature", "properties": {"norad_id": 66383, "name": "STARLINK-35690", "group": "last-30-days", "lat": -14.448025747399013, "lon": -87.73107983705893, "alt_km": 448.9450483892688, "timestamp": "2025-12-08T17:43:03.630520+00:00", "meta": {"OBJECT_NAME": "STARLINK-35690", "OBJECT_ID": "2025-257D", "EPOCH": "2025-12-08T06:53:27.557664", "MEAN_MOTION": 15.3963385, "ECCENTRICITY": 0.00017372, "INCLINATION": 53.1611, "RA_OF_ASC_NODE": 285.5323, "ARG_OF_PERICENTER": 38.9123, "MEAN_ANOMALY": 321.2007, "EPHEMERIS_TYPE": 0, "CLASSIFICATION_TYPE": "U", "NORAD_CAT_ID": 66383, "ELEMENT_SET_NO": 999, "REV_AT_EPOCH": 568, "BSTAR": 0.001773198, "MEAN_MOTION_DOT": 0.00071225, "MEAN_MOTION_DDOT": 0}, "tle": {"line1": "1 66383U 25257D   25342.28712451  .00071225  00000+0  17732-2 0  9991", "line2": "2 66383  53.1611 285.5323 0001737  38.9123 321.2007 15.39633850  5684"}}, "geometry": {"type": "Point", "coordinates": [-87.73107983705893, -14.448025747399013]}}, {"type": "Feature", "properties": {"norad_id": 66384, "name": "STARLINK-35662", "group": "last-30-days", "lat": -13.001277744992898, "lon": -86.56468578660896, "alt_km": 449.89499805495234, "timestamp": "2025-12-08T17:43:03.630532+00:00", "meta": {"OBJECT_NAME": "STARLINK-35662", "OBJECT_ID": "2025-257E", "EPOCH": "2025-12-08T06:52:58.643904", "MEAN_MOTION": 15.3963087, "ECCENTRICITY": 8.571e-05, "INCLINATION": 53.1598, "RA_OF_ASC_NODE": 285.5316, "ARG_OF_PERICENTER": 115.2866, "MEAN_ANOMALY": 244.8228, "EPHEMERIS_TYPE": 0, "CLASSIFICATION_TYPE": "U", "NORAD_CAT_ID": 66384, "ELEMENT_SET_NO": 999, "REV_AT_EPOCH": 568, "BSTAR": 0.0011718568, "MEAN_MOTION_DOT": 0.00046778, "MEAN_MOTION_DDOT": 0}, "tle": {"line1": "1 66384U 25257E   25342.28678986  .00046778  00000+0  11719-2 0  9990", "line2": "2 66384  53.1598 285.5316 0000857 115.2866 244.8228 15.39630870  5680"}}, "geometry": {"type": "Point", "coordinates": [-86.56468578660896, -13.001277744992898]}}, {"type": "Feature", "properties": {"norad_id": 66385, "name": "STARLINK-35659", "group": "last-30-days", "lat": -32.46190251651134, "lon": -105.0292522996209, "alt_km": 451.47694879197024, "timestamp": "2025-12-08T17:43:03.630545+00:00", "meta": {"OBJECT_NAME": "STARLINK-35659", "OBJECT_ID": "2025-257F", "EPOCH": "2025-12-08T05:26:12.849504", "MEAN_MOTION": 15.39615436, "ECCENTRICITY": 9.942e-05, "INCLINATION": 53.1607, "RA_OF_ASC_NODE": 285.8664, "ARG_OF_PERICENTER": 99.7139, "MEAN_ANOMALY": 260.3978, "EPHEMERIS_TYPE": 0, "CLASSIFICATION_TYPE": "U", "NORAD_CAT_ID": 66385, "ELEMENT_SET_NO": 999, "REV_AT_EPOCH": 567, "BSTAR": 0.0024699972, "MEAN_MOTION_DOT": 0.00099684, "MEAN_MOTION_DDOT": 0}, "tle": {"line1": "1 66385U 25257F   25342.22653761  .00099684  00000+0  24700-2 0  9997", "line2": "2 66385  53.1607 285.8664 0000994  99.7139 260.3978 15.39615436  5677"}}, "geometry": {"type": "Point", "coordinates": [-105.0292522996209, -32.46190251651134]}}]}